GLOBALSTAR M082         
1 38042U 11080C   25069.87444560 -.00000069  00000+0  19329-3 0  9999
2 38042  52.0082 304.7834 0000755  46.2105  35.9216 12.62263659611084
GLOBALSTAR M092         
1 38043U 11080D   25070.14958932 -.00000094  00000+0  52115-4 0  9994
2 38043  52.0102  34.3113 0000299  89.4211 284.0663 12.62273140609787
GLOBALSTAR M090         
1 38044U 11080E   25069.82137973 -.00000065  00000+0  21786-3 0  9999
2 38044  51.9890 298.8808 0000842  69.0739  10.8970 12.62267880611199
GLOBALSTAR M086         
1 38045U 11080F   25069.84774918 -.00000066  00000+0  21024-3 0  9994
2 38045  51.9901 299.3438 0001656  92.8499 347.4269 12.62267790611144
GLOBALSTAR M097         
1 39072U 13005A   25069.77754027 -.00000114  00000+0 -54640-4 0  9991
2 39072  52.0032 214.0014 0000995  93.4133 266.6848 12.62270861558387
GLOBALSTAR M093         
1 39073U 13005B   25069.82986546 -.00000096  00000+0  41431-4 0  9993
2 39073  51.9798 207.2993 0000935  94.2193 265.8780 12.62262493558348
